{
"type": "FeatureCollection",
"name": "gates",
"crs": { "type": "name", "properties": { "name": "urn:ogc:def:crs:OGC:1.3:CRS84" } },
"features": [
{ "type": "Feature", "properties": { "name": "Ô Yên Hoa", "othernames": "Ô Yên Phụ", "location": "Nghi Tàm x Thanh Niên x Yên Phụ", "description": null }, "geometry": { "type": "Point", "coordinates": [ 105.8399882, 21.0507474 ] } },
{ "type": "Feature", "properties": { "name": "Ô Yên Hoa", "othernames": "Ô Yên Phụ", "location": "Nghi Tàm x Thanh Niên x Yên Phụ", "description": null }, "geometry": { "type": "Point", "coordinates": [ 105.8399882, 21.0507474 ] } },
{ "type": "Feature", "properties": { "name": "Ô Yên Tĩnh", "othernames": "Ô Hàng Than, Ô Yên Định, Ô Yên Ninh", "location": "Yên Phụ x Cửa Bắc", "description": null }, "geometry": { "type": "Point", "coordinates": [ 105.8437621, 21.0467079 ] } },
{ "type": "Feature", "properties": { "name": "Ô Thạch Khối", "othernames": "Ô Nghĩa Lập", "location": "Yên Phụ x Hàng Than", "description": null }, "geometry": { "type": "Point", "coordinates": [ 105.8473555, 21.0437041 ] } },
{ "type": "Feature", "properties": { "name": "Ô Phúc Lâm", "othernames": "Ô Hàng Đậu, Ô Tiền Trung", "location": "Yên Phụ x Hàng Đậu x Trần Nhật Duật", "description": null }, "geometry": { "type": "Point", "coordinates": [ 105.8499291, 21.0406957 ] } },
{ "type": "Feature", "properties": { "name": "Ô Nguyên Khiết", "othernames": null, "location": "Trần Nhật Duật x Hàng Khoai", "description": null }, "geometry": { "type": "Point", "coordinates": [ 105.8511496, 21.0394834 ] } },
{ "type": "Feature", "properties": { "name": "Ô Đông Hà", "othernames": "Ô Quan Chưởng", "location": "Trần Nhật Duật x Ô Quan Chưởng", "description": null }, "geometry": { "type": "Point", "coordinates": [ 105.8528697, 21.0375029 ] } },
{ "type": "Feature", "properties": { "name": "Ô Trừng Thanh", "othernames": null, "location": "Trần Nhật Duật x Hàng Chĩnh", "description": null }, "geometry": { "type": "Point", "coordinates": [ 105.8542072, 21.0356567 ] } },
{ "type": "Feature", "properties": { "name": "Ô Mỹ Lộc", "othernames": null, "location": null, "description": null }, "geometry": { "type": "Point", "coordinates": [ 105.8553304, 21.0338854 ] } },
{ "type": "Feature", "properties": { "name": "Ô Đông An", "othernames": null, "location": "Trần Quang Khải x Hàng Thùng", "description": null }, "geometry": { "type": "Point", "coordinates": [ 105.8559243, 21.0326476 ] } },
{ "type": "Feature", "properties": { "name": "Ô Tây Luông", "othernames": "Ô Tràng Tiền, Ô Trường Long, Ô Cựu Lâu", "location": "Trần Quang Khải x Tràng Tiền x Trần Khánh Dư", "description": null }, "geometry": { "type": "Point", "coordinates": [ 105.859962, 21.0250573 ] } },
{ "type": "Feature", "properties": { "name": "Ô Nhân Hòa", "othernames": null, "location": "Trần Khánh Dư x Trần Hưng Đạo", "description": null }, "geometry": { "type": "Point", "coordinates": [ 105.8618095, 21.0185353 ] } },
{ "type": "Feature", "properties": { "name": "Ô Thanh Lãng", "othernames": "Ô Đống mác, Ô Lãng Yên", "location": "Trần Khát Chân x Lò Đúc x Kim Ngưu", "description": null }, "geometry": { "type": "Point", "coordinates": [ 105.860847, 21.0090357 ] } },
{ "type": "Feature", "properties": { "name": "Ô Yên Ninh", "othernames": "Ô Cầu Dền, Ô Thịnh Yên", "location": "Trần Khát Chân x Huế x Đại Cồ Việt x Bạch Mai", "description": null }, "geometry": { "type": "Point", "coordinates": [ 105.8514191, 21.0088046 ] } },
{ "type": "Feature", "properties": { "name": "Ô Kim Hoa", "othernames": "Ô Đồng Lầm, Ô Kim Liên", "location": "Đại Cồ Việt x Lê Duẩn x Xã Đàn x Giải Phóng", "description": null }, "geometry": { "type": "Point", "coordinates": [ 105.841381052310382, 21.007698104541163 ] } },
{ "type": "Feature", "properties": { "name": "Ô Thịnh Quang", "othernames": "Ô Chợ Dừa, Ô Thịnh Hào", "location": "Đê La Thành x Khâm Thiên x Tôn Đức Thắng x Ô Chợ Dừa x Nguyễn Lương Bằng", "description": null }, "geometry": { "type": "Point", "coordinates": [ 105.829669371418916, 21.01826170579584 ] } },
{ "type": "Feature", "properties": { "name": "Ô Thanh Bảo", "othernames": "Ô Cầu Giấy", "location": "Thanh Bảo x Nguyễn Thái Học x Giảng Võ", "description": null }, "geometry": { "type": "Point", "coordinates": [ 105.830216, 21.0321081 ] } },
{ "type": "Feature", "properties": { "name": "Ô Thụy Chương", "othernames": "Ô Quán Thánh", "location": "Quán Thánh x Thanh Niên x Thụy Khuê x Hùng Vương", "description": null }, "geometry": { "type": "Point", "coordinates": [ 105.8358527, 21.042708 ] } }
]
}
